NORAD_CAT_ID,OBJECT_NAME,OBJECT_TYPE,EPOCH,MEAN_MOTION,ECCENTRICITY,INCLINATION,RA_OF_ASC_NODE,ARG_OF_PERICENTER,MEAN_ANOMALY,BSTAR,MEAN_MOTION_DOT,MEAN_MOTION_DDOT,TLE_LINE0,TLE_LINE1,TLE_LINE2,SEMIMAJOR_AXIS,PERIOD,APOGEE,PERIGEE,DECAYED
53632.0,STARLINK-4606,PAYLOAD,2024-05-18 17:27:44,15.08855559,0.0001156,53.2126,306.7915,96.6391,263.4733,0.0011576,0.00018191,0.0,0 STARLINK-4606,1 53632U 22104AW  24139.72759542  .00018191  00000-0  11576-2 0  9990,2 53632  53.2126 306.7915 0001156  96.6391 263.4733 15.08855559 96596,6917.833,95.437,540.498,538.898,0.0
53632.0,STARLINK-4606,PAYLOAD,2024-05-19 04:35:25,15.08885959,0.000124,53.214,304.71,93.2906,266.8228,0.0013249,0.00020887,0.0,0 STARLINK-4606,1 53632U 22104AW  24140.19126162  .00020887  00000-0  13249-2 0  9993,2 53632  53.2140 304.7100 0001240  93.2906 266.8228 15.08885959 95643,6917.74,95.435,540.463,538.747,0.0
53632.0,STARLINK-4606,PAYLOAD,2024-05-19 14:07:44,15.08809411,0.0001225,53.2161,302.9268,116.19,243.9218,0.00050743,7.79e-05,0.0,0 STARLINK-4606,1 53632U 22104AW  24140.58871441  .00007790  00000-0  50743-3 0  9992,2 53632  53.2161 302.9268 0001225 116.1900 243.9218 15.08809411 96727,6917.974,95.439,540.686,538.991,0.0
53632.0,STARLINK-4606,PAYLOAD,2024-05-19 20:29:18,15.08808158,0.0001499,53.2163,301.7345,127.6935,232.4194,0.0021481,0.00034035,0.0,0 STARLINK-4606,1 53632U 22104AW  24140.85368163  .00034035  00000-0  21481-2 0  9992,2 53632  53.2163 301.7345 0001499 127.6935 232.4194 15.08808158 95744,6917.978,95.44,540.88,538.806,0.0
53632.0,STARLINK-4606,PAYLOAD,2024-05-20 13:58:32,15.08853754,0.000134,53.2159,298.4638,124.3365,235.7754,0.0019583,0.00031028,0.0,0 STARLINK-4606,1 53632U 22104AW  24141.58232517  .00031028  00000-0  19583-2 0  9995,2 53632  53.2159 298.4638 0001340 124.3365 235.7754 15.08853754 96877,6917.838,95.437,540.63,538.776,0.0
53632.0,STARLINK-4606,PAYLOAD,2024-05-20 20:20:05,15.08867252,0.0001315,53.2169,297.2746,121.9666,238.1454,0.0018337,0.00029038,0.0,0 STARLINK-4606,1 53632U 22104AW  24141.84728158  .00029038  00000-0  18337-2 0  9999,2 53632  53.2169 297.2746 0001315 121.9666 238.1454 15.08867252 95897,6917.797,95.436,540.572,538.752,0.0
53632.0,STARLINK-4606,PAYLOAD,2024-05-21 13:49:19,15.08838499,8.66e-05,53.2171,294.0031,92.5441,267.565,0.00070757,0.00010991,0.0,0 STARLINK-4606,1 53632U 22104AW  24142.57592225  .00010991  00000-0  70757-3 0  9997,2 53632  53.2171 294.0031 0000866  92.5441 267.5650 15.08838499 97028,6917.885,95.438,540.349,539.151,0.0
53632.0,STARLINK-4606,PAYLOAD,2024-05-21 17:00:05,15.08841849,0.000103,53.217,293.4096,89.9326,270.1784,0.0011095,0.00017415,0.0,0 STARLINK-4606,1 53632U 22104AW  24142.70840265  .00017415  00000-0  11095-2 0  9999,2 53632  53.2170 293.4096 0001030  89.9326 270.1784 15.08841849 96027,6917.875,95.437,540.452,539.027,0.0
53632.0,STARLINK-4606,PAYLOAD,2024-05-22 10:29:20,15.08848402,0.0001143,53.217,290.1399,83.5704,276.5418,0.00080726,0.00012586,0.0,0 STARLINK-4606,1 53632U 22104AW  24143.43704354  .00012586  00000-0  80726-3 0  9990,2 53632  53.2170 290.1399 0001143  83.5704 276.5418 15.08848402 96130,6917.855,95.437,540.51,538.929,0.0
53632.0,STARLINK-4606,PAYLOAD,2024-05-23 13:30:53,15.08844547,0.0001175,53.2166,285.0856,149.9216,210.1844,0.0002957,4.422e-05,0.0,0 STARLINK-4606,1 53632U 22104AW  24144.56312143  .00004422  00000-0  29570-3 0  9996,2 53632  53.2166 285.0856 0001175 149.9216 210.1844 15.08844547 97321,6917.866,95.437,540.544,538.919,0.0
53632.0,STARLINK-4606,PAYLOAD,2024-05-23 18:17:02,15.08852518,0.0001078,53.2169,284.1912,105.6184,254.4927,0.00037875,5.747e-05,0.0,0 STARLINK-4606,1 53632U 22104AW  24144.76183957  .00005747  00000-0  37875-3 0  9995,2 53632  53.2169 284.1912 0001078 105.6184 254.4927 15.08852518 96332,6917.842,95.437,540.453,538.961,0.0
53632.0,STARLINK-4606,PAYLOAD,2024-05-23 19:52:26,15.08854026,0.000107,53.2168,283.8931,105.6521,254.459,0.00040219,6.121e-05,0.0,0 STARLINK-4606,1 53632U 22104AW  24144.82807872  .00006121  00000-0  40219-3 0  9994,2 53632  53.2168 283.8931 0001070 105.6521 254.4590 15.08854026 97361,6917.838,95.437,540.443,538.962,0.0
53632.0,STARLINK-4606,PAYLOAD,2024-05-24 13:21:41,15.08841701,0.0001167,53.2176,280.6213,66.9322,293.1793,0.00012984,1.779e-05,0.0,0 STARLINK-4606,1 53632U 22104AW  24145.55672454  .00001779  00000-0  12984-3 0  9993,2 53632  53.2176 280.6213 0001167  66.9322 293.1793 15.08841701 96453,6917.875,95.437,540.548,538.933,0.0
53632.0,STARLINK-4606,PAYLOAD,2024-05-24 18:07:50,15.08849661,0.0001074,53.2159,279.7271,110.6579,249.4528,0.00033326,5.021e-05,0.0,0 STARLINK-4606,1 53632U 22104AW  24145.75544055  .00005021  00000-0  33326-3 0  9997,2 53632  53.2159 279.7271 0001074 110.6579 249.4528 15.08849661 97505,6917.851,95.437,540.459,538.973,0.0
53632.0,STARLINK-4606,PAYLOAD,2024-05-25 13:12:28,15.08823438,9.62e-05,53.216,276.1589,99.7341,260.376,-7.5868e-05,-1.494e-05,0.0,0 STARLINK-4606,1 53632U 22104AW  24146.55032706 -.00001494  00000-0 -75868-4 0  9991,2 53632  53.2160 276.1589 0000962  99.7341 260.3760 15.08823438 96603,6917.931,95.439,540.462,539.131,0.0
53632.0,STARLINK-4606,PAYLOAD,2024-05-25 14:47:51,15.08834199,8.85e-05,53.2147,275.8706,44.6336,315.4727,0.00042677,6.51e-05,0.0,0 STARLINK-4606,1 53632U 22104AW  24146.61656792  .00006510  00000-0  42677-3 0  9998,2 53632  53.2147 275.8706 0000885  44.6336 315.4727 15.08834199 97637,6917.898,95.438,540.375,539.151,0.0
53632.0,STARLINK-4606,PAYLOAD,2024-05-26 13:03:15,15.08838878,9.99e-05,53.2159,271.7039,77.1089,283.0015,0.00044314,6.772e-05,0.0,0 STARLINK-4606,1 53632U 22104AW  24147.54393348  .00006772  00000-0  44314-3 0  9996,2 53632  53.2159 271.7039 0000999  77.1089 283.0015 15.08838878 96756,6917.884,95.438,540.44,539.058,0.0
53632.0,STARLINK-4606,PAYLOAD,2024-05-26 14:38:38,15.08839337,0.000112,53.2158,271.4069,71.8113,288.3001,0.00050978,7.834e-05,0.0,0 STARLINK-4606,1 53632U 22104AW  24147.61017360  .00007834  00000-0  50978-3 0  9994,2 53632  53.2158 271.4069 0001120  71.8113 288.3001 15.08839337 97789,6917.882,95.438,540.522,538.973,0.0
53632.0,STARLINK-4606,PAYLOAD,2024-05-27 14:29:25,15.08848851,0.0001011,53.2167,266.9465,100.7463,259.3643,0.00035457,5.361e-05,0.0,0 STARLINK-4606,1 53632U 22104AW  24148.60376944  .00005361  00000-0  35457-3 0  9998,2 53632  53.2167 266.9465 0001011 100.7463 259.3643 15.08848851 97935,6917.853,95.437,540.418,539.019,0.0
53632.0,STARLINK-4606,PAYLOAD,2024-05-27 17:40:11,15.08852276,9.68e-05,53.2157,266.3508,81.2526,278.8575,0.00039002,5.927e-05,0.0,0 STARLINK-4606,1 53632U 22104AW  24148.73624778  .00005927  00000-0  39002-3 0  9991,2 53632  53.2157 266.3508 0000968  81.2526 278.8575 15.08852276 96934,6917.843,95.437,540.378,539.038,0.0
53632.0,STARLINK-4606,PAYLOAD,2024-05-28 12:44:49,15.08841699,0.000112,53.2161,262.7793,113.8228,246.2882,1.734e-05,-1.2e-07,0.0,0 STARLINK-4606,1 53632U 22104AW  24149.53112766 -.00000012  00000-0  17340-4 0  9992,2 53632  53.2161 262.7793 0001120 113.8228 246.2882 15.08841699 97058,6917.875,95.437,540.515,538.965,0.0
53632.0,STARLINK-4606,PAYLOAD,2024-05-28 14:20:12,15.08840934,0.0001032,53.216,262.4822,105.9206,254.19,-2.6043e-06,-3.29e-06,0.0,0 STARLINK-4606,1 53632U 22104AW  24149.59736803 -.00000329  00000-0 -26043-5 0  9995,2 53632  53.2160 262.4822 0001032 105.9206 254.1900 15.08840934 98081,6917.878,95.437,540.456,539.029,0.0
53632.0,STARLINK-4606,PAYLOAD,2024-05-29 14:10:59,15.08839711,9.88e-05,53.2171,258.0207,94.2443,265.8662,2.1457e-05,5.4e-07,0.0,0 STARLINK-4606,1 53632U 22104AW  24150.59096983  .00000054  00000-0  21457-4 0  9991,2 53632  53.2171 258.0207 0000988  94.2443 265.8662 15.08839711 98235,6917.881,95.438,540.43,539.063,0.0
53632.0,STARLINK-4606,PAYLOAD,2024-05-30 12:26:23,15.08839891,9.8e-05,53.2167,253.8582,82.9571,277.1533,0.00011447,1.534e-05,0.0,0 STARLINK-4606,1 53632U 22104AW  24151.51832929  .00001534  00000-0  11447-3 0  9993,2 53632  53.2167 253.8582 0000980  82.9571 277.1533 15.08839891 98374,6917.881,95.438,540.424,539.068,0.0
53632.0,STARLINK-4606,PAYLOAD,2024-05-31 12:17:10,15.08839921,0.0001076,53.2174,249.4001,87.7174,272.3941,0.00010326,1.356e-05,0.0,0 STARLINK-4606,1 53632U 22104AW  24152.51193107  .00001356  00000-0  10326-3 0  9999,2 53632  53.2174 249.4001 0001076  87.7174 272.3941 15.08839921 97506,6917.881,95.438,540.49,539.001,0.0
53632.0,STARLINK-4606,PAYLOAD,2024-05-31 13:52:33,15.08841187,0.0001074,53.2172,249.1026,79.842,280.2693,0.00011122,1.483e-05,0.0,0 STARLINK-4606,1 53632U 22104AW  24152.57817036  .00001483  00000-0  11122-3 0  9995,2 53632  53.2172 249.1026 0001074  79.8420 280.2693 15.08841187 98535,6917.877,95.437,540.485,538.999,0.0
53632.0,STARLINK-4606,PAYLOAD,2024-05-31 15:27:56,15.08842617,0.0001091,53.2174,248.805,88.6618,271.4499,0.00012246,1.662e-05,0.0,0 STARLINK-4606,1 53632U 22104AW  24152.64440894  .00001662  00000-0  12246-3 0  9994,2 53632  53.2174 248.8050 0001091  88.6618 271.4499 15.08842617 98542,6917.872,95.437,540.492,538.983,0.0
53632.0,STARLINK-4606,PAYLOAD,2024-05-31 23:24:51,15.08853256,0.0001173,53.2177,247.3206,83.5346,276.5779,0.00018304,2.627e-05,0.0,0 STARLINK-4606,1 53632U 22104AW  24152.97559973  .00002627  00000-0  18304-3 0  9992,2 53632  53.2177 247.3206 0001173  83.5346 276.5779 15.08853256 97575,6917.84,95.437,540.516,538.893,0.0
53632.0,STARLINK-4606,PAYLOAD,2024-06-01 12:07:58,15.08832485,0.0001324,53.2174,244.9414,84.4678,275.6465,-2.2326e-06,-3.23e-06,0.0,0 STARLINK-4606,1 53632U 22104AW  24153.50553977 -.00000323  00000-0 -22326-5 0  9994,2 53632  53.2174 244.9414 0001324  84.4678 275.6465 15.08832485 97654,6917.903,95.438,540.684,538.852,0.0
53632.0,STARLINK-4606,PAYLOAD,2024-06-01 13:43:21,15.08833889,0.0001214,53.217,244.6439,83.7821,276.3309,1.3657e-05,-7.1e-07,0.0,0 STARLINK-4606,1 53632U 22104AW  24153.57177874 -.00000071  00000-0  13657-4 0  9994,2 53632  53.2170 244.6439 0001214  83.7821 276.3309 15.08833889 98682,6917.899,95.438,540.604,538.924,0.0
